ONEWEB-0716             
1 55177U 23004AP  24262.70079568  .00002097  00000+0  53654-2 0  9994
2 55177  87.9136 132.6709 0001522  79.9146 280.2157 13.17665349 83769
ONEWEB-0717             
1 55178U 23004AQ  24262.15148658  .00000188  00000+0  44985-3 0  9998
2 55178  87.9129 132.7431 0002269  55.4081 304.7265 13.17650811 83749
ONEWEB-0719             
1 55179U 23004AR  24262.61836312 -.00006450  00000+0 -16640-1 0  9996
2 55179  87.9144 132.6326 0000996  67.6214 292.5023 13.17719981 83758
ONEWEB-0530             
1 55796U 23029A   24262.43037739  .00000048  00000+0  87087-4 0  9995
2 55796  87.9240  41.1314 0001484  78.2120 281.9180 13.20771056 77099
ONEWEB-0534             
1 55797U 23029B   24262.79654900  .00000023  00000+0  23618-4 0  9993
2 55797  87.9241  41.0653 0001658 101.0614 259.0706 13.20773248 77839
ONEWEB-0556             
1 55798U 23029C   24262.42408653  .00000060  00000+0  11465-3 0  9993
2 55798  87.9240  41.1329 0000855  97.9194 262.2037 13.20770563 77092
ONEWEB-0562             
1 55799U 23029D   24262.79023902  .00000040  00000+0  65449-4 0  9994
2 55799  87.9243  41.0512 0001021  62.8034 297.3203 13.20772985 77824
ONEWEB-0563             
1 55800U 23029E   24262.40513193  .00001018  00000+0  24727-2 0  9999
2 55800  87.9243  41.1426 0001774 107.6590 252.4738 13.20767128 77088
